{
  "type": "FeatureCollection",
  "features": [
    {
      "type": "Feature",
      "properties": {
        "norad_id": 41330,
        "name": "COSMOS 2514 (751)",
        "group": "glo-ops",
        "lat": 64.75573591578232,
        "lon": 59.64222508709365,
        "alt_km": 19140.557017290113,
        "timestamp": "2025-12-18T17:50:15.218314+00:00",
        "meta_object_name": "COSMOS 2514 (751)",
        "meta_object_id": "2016-008A",
        "meta_epoch": "2025-12-18T03:36:56.432160",
        "meta_mean_motion": 2.13102729,
        "meta_eccentricity": 0.00118677,
        "meta_inclination": 65.1307,
        "meta_ra_of_asc_node": 319.2187,
        "meta_arg_of_pericenter": 220.1526,
        "meta_mean_anomaly": 139.7512,
        "meta_ephemeris_type": 0,
        "meta_classification_type": "U",
        "meta_norad_cat_id": 41330,
        "meta_element_set_no": 999,
        "meta_rev_at_epoch": 7676,
        "meta_bstar": 0,
        "meta_mean_motion_dot": -6.5e-07,
        "meta_mean_motion_ddot": 0,
        "tle_line1": "1 41330U 16008A   25352.15065315 -.00000065  00000+0  00000+0 0  9999",
        "tle_line2": "2 41330  65.1307 319.2187 0011867 220.1526 139.7512  2.13102729 76768"
      },
      "geometry": {
        "type": "Point",
        "coordinates": [
          59.64222508709365,
          64.75573591578232
        ]
      }
    },
    {
      "type": "Feature",
      "properties": {
        "norad_id": 42939,
        "name": "COSMOS 2522 (752)",
        "group": "glo-ops",
        "lat": -34.11718219360211,
        "lon": 37.27654032652881,
        "alt_km": 19118.09872145034,
        "timestamp": "2025-12-18T17:50:15.218325+00:00",
        "meta_object_name": "COSMOS 2522 (752)",
        "meta_object_id": "2017-055A",
        "meta_epoch": "2025-12-17T23:44:12.763104",
        "meta_mean_motion": 2.13102073,
        "meta_eccentricity": 0.00063915,
        "meta_inclination": 64.076,
        "meta_ra_of_asc_node": 198.0502,
        "meta_arg_of_pericenter": 224.057,
        "meta_mean_anomaly": 135.9735,
        "meta_ephemeris_type": 0,
        "meta_classification_type": "U",
        "meta_norad_cat_id": 42939,
        "meta_element_set_no": 999,
        "meta_rev_at_epoch": 6411,
        "meta_bstar": 0,
        "meta_mean_motion_dot": 1.1e-06,
        "meta_mean_motion_ddot": 0,
        "tle_line1": "1 42939U 17055A   25351.98903661  .00000110  00000+0  00000+0 0  9993",
        "tle_line2": "2 42939  64.0760 198.0502 0006391 224.0570 135.9735  2.13102073 64110"
      },
      "geometry": {
        "type": "Point",
        "coordinates": [
          37.27654032652881,
          -34.11718219360211
        ]
      }
    },
    {
      "type": "Feature",
      "properties": {
        "norad_id": 43508,
        "name": "COSMOS 2527 (756)",
        "group": "glo-ops",
        "lat": -57.953573978756076,
        "lon": -53.342508899826356,
        "alt_km": 19115.48805152119,
        "timestamp": "2025-12-18T17:50:15.218337+00:00",
        "meta_object_name": "COSMOS 2527 (756)",
        "meta_object_id": "2018-053A",
        "meta_epoch": "2025-12-16T01:44:48.838272",
        "meta_mean_motion": 2.13102153,
        "meta_eccentricity": 0.00087862,
        "meta_inclination": 65.4745,
        "meta_ra_of_asc_node": 80.02,
        "meta_arg_of_pericenter": 225.9447,
        "meta_mean_anomaly": 133.9962,
        "meta_ephemeris_type": 0,
        "meta_classification_type": "U",
        "meta_norad_cat_id": 43508,
        "meta_element_set_no": 999,
        "meta_rev_at_epoch": 5837,
        "meta_bstar": 0,
        "meta_mean_motion_dot": -5.4e-07,
        "meta_mean_motion_ddot": 0,
        "tle_line1": "1 43508U 18053A   25350.07278748 -.00000054  00000+0  00000+0 0  9993",
        "tle_line2": "2 43508  65.4745  80.0200 0008786 225.9447 133.9962  2.13102153 58379"
      },
      "geometry": {
        "type": "Point",
        "coordinates": [
          -53.342508899826356,
          -57.953573978756076
        ]
      }
    },
    {
      "type": "Feature",
      "properties": {
        "norad_id": 43687,
        "name": "COSMOS 2529 (757)",
        "group": "glo-ops",
        "lat": 5.55177382209218,
        "lon": 16.004970407588676,
        "alt_km": 19126.501145229377,
        "timestamp": "2025-12-18T17:50:15.218348+00:00",
        "meta_object_name": "COSMOS 2529 (757)",
        "meta_object_id": "2018-086A",
        "meta_epoch": "2025-12-18T01:08:02.738688",
        "meta_mean_motion": 2.13102094,
        "meta_eccentricity": 0.0007069,
        "meta_inclination": 64.2921,
        "meta_ra_of_asc_node": 198.7091,
        "meta_arg_of_pericenter": 253.685,
        "meta_mean_anomaly": 106.3195,
        "meta_ephemeris_type": 0,
        "meta_classification_type": "U",
        "meta_norad_cat_id": 43687,
        "meta_element_set_no": 999,
        "meta_rev_at_epoch": 5542,
        "meta_bstar": 0,
        "meta_mean_motion_dot": 1.1e-06,
        "meta_mean_motion_ddot": 0,
        "tle_line1": "1 43687U 18086A   25352.04725392  .00000110  00000+0  00000+0 0  9990",
        "tle_line2": "2 43687  64.2921 198.7091 0007069 253.6850 106.3195  2.13102094 55423"
      },
      "geometry": {
        "type": "Point",
        "coordinates": [
          16.004970407588676,
          5.55177382209218
        ]
      }
    },
    {
      "type": "Feature",
      "properties": {
        "norad_id": 44299,
        "name": "COSMOS 2534 (758)",
        "group": "glo-ops",
        "lat": -44.99984292440562,
        "lon": 169.98796220368985,
        "alt_km": 19114.870250322736,
        "timestamp": "2025-12-18T17:50:15.218359+00:00",
        "meta_object_name": "COSMOS 2534 (758)",
        "meta_object_id": "2019-030A",
        "meta_epoch": "2025-12-18T02:32:35.068416",
        "meta_mean_motion": 2.13102441,
        "meta_eccentricity": 0.00087685,
        "meta_inclination": 64.3657,
        "meta_ra_of_asc_node": 198.7122,
        "meta_arg_of_pericenter": 284.1366,
        "meta_mean_anomaly": 255.3295,
        "meta_ephemeris_type": 0,
        "meta_classification_type": "U",
        "meta_norad_cat_id": 44299,
        "meta_element_set_no": 999,
        "meta_rev_at_epoch": 5106,
        "meta_bstar": 0,
        "meta_mean_motion_dot": 1.1e-06,
        "meta_mean_motion_ddot": 0,
        "tle_line1": "1 44299U 19030A   25352.10596144  .00000110  00000+0  00000+0 0  9998",
        "tle_line2": "2 44299  64.3657 198.7122 0008768 284.1366 255.3295  2.13102441 51061"
      },
      "geometry": {
        "type": "Point",
        "coordinates": [
          169.98796220368985,
          -44.99984292440562
        ]
      }
    },
    {
      "type": "Feature",
      "properties": {
        "norad_id": 44850,
        "name": "COSMOS 2544 (759)",
        "group": "glo-ops",
        "lat": -58.04929857828657,
        "lon": 32.78781730210679,
        "alt_km": 19109.632299727753,
        "timestamp": "2025-12-18T17:50:15.218371+00:00",
        "meta_object_name": "COSMOS 2544 (759)",
        "meta_object_id": "2019-088A",
        "meta_epoch": "2025-12-16T11:40:43.010688",
        "meta_mean_motion": 2.13101965,
        "meta_eccentricity": 0.00138869,
        "meta_inclination": 65.4623,
        "meta_ra_of_asc_node": 79.8328,
        "meta_arg_of_pericenter": 249.7945,
        "meta_mean_anomaly": 110.0707,
        "meta_ephemeris_type": 0,
        "meta_classification_type": "U",
        "meta_norad_cat_id": 44850,
        "meta_element_set_no": 999,
        "meta_rev_at_epoch": 4682,
        "meta_bstar": 0,
        "meta_mean_motion_dot": -5.3e-07,
        "meta_mean_motion_ddot": 0,
        "tle_line1": "1 44850U 19088A   25350.48660892 -.00000053  00000+0  00000+0 0  9992",
        "tle_line2": "2 44850  65.4623  79.8328 0013886 249.7945 110.0707  2.13101965 46826"
      },
      "geometry": {
        "type": "Point",
        "coordinates": [
          32.78781730210679,
          -58.04929857828657
        ]
      }
    },
    {
      "type": "Feature",
      "properties": {
        "norad_id": 45358,
        "name": "COSMOS 2545 (760)",
        "group": "glo-ops",
        "lat": 34.744062944791075,
        "lon": 119.38725270962397,
        "alt_km": 19135.307692782422,
        "timestamp": "2025-12-18T17:50:15.218382+00:00",
        "meta_object_name": "COSMOS 2545 (760)",
        "meta_object_id": "2020-018A",
        "meta_epoch": "2025-12-18T02:09:48.426048",
        "meta_mean_motion": 2.13102578,
        "meta_eccentricity": 0.00116405,
        "meta_inclination": 64.466,
        "meta_ra_of_asc_node": 318.7814,
        "meta_arg_of_pericenter": 249.3553,
        "meta_mean_anomaly": 110.5113,
        "meta_ephemeris_type": 0,
        "meta_classification_type": "U",
        "meta_norad_cat_id": 45358,
        "meta_element_set_no": 999,
        "meta_rev_at_epoch": 4480,
        "meta_bstar": 0,
        "meta_mean_motion_dot": -6.6e-07,
        "meta_mean_motion_ddot": 0,
        "tle_line1": "1 45358U 20018A   25352.09014382 -.00000066  00000+0  00000+0 0  9991",
        "tle_line2": "2 45358  64.4660 318.7814 0011640 249.3553 110.5113  2.13102578 44805"
      },
      "geometry": {
        "type": "Point",
        "coordinates": [
          119.38725270962397,
          34.744062944791075
        ]
      }
    }
  ]
}